STARLINK-30545          
1 58000U 23153K   26162.53583558 -.00000870  00000+0 -22053-4 0  9998
2 58000  43.0102   0.0000 0002607 285.9355   0.0000 15.27572124149254
STARLINK-30546          
1 58001U 23153K   26162.53583558 -.00000870  00000+0 -22053-4 0  9999
2 58001  43.0102   3.6000 0002607 285.9355 137.5080 15.27572124149258
STARLINK-30547          
1 58002U 23153K   26162.53583558 -.00000870  00000+0 -22053-4 0  9990
2 58002  43.0102   7.2000 0002607 285.9355 275.0160 15.27572124149256
STARLINK-30548          
1 58003U 23153K   26162.53583558 -.00000870  00000+0 -22053-4 0  9991
2 58003  43.0102  10.8000 0002607 285.9355  52.5240 15.27572124149254
STARLINK-30549          
1 58004U 23153K   26162.53583558 -.00000870  00000+0 -22053-4 0  9992
2 58004  43.0102  14.4000 0002607 285.9355 190.0320 15.27572124149252
STARLINK-30550          
1 58005U 23153K   26162.53583558 -.00000870  00000+0 -22053-4 0  9993
2 58005  43.0102  18.0000 0002607 285.9355 327.5400 15.27572124149259
STARLINK-30551          
1 58006U 23153K   26162.53583558 -.00000870  00000+0 -22053-4 0  9994
2 58006  43.0102  21.6000 0002607 285.9355 105.0480 15.27572124149257
STARLINK-30552          
1 58007U 23153K   26162.53583558 -.00000870  00000+0 -22053-4 0  9995
2 58007  43.0102  25.2000 0002607 285.9355 242.5560 15.27572124149254
STARLINK-30553          
1 58008U 23153K   26162.53583558 -.00000870  00000+0 -22053-4 0  9996
2 58008  43.0102  28.8000 0002607 285.9355  20.0640 15.27572124149252
STARLINK-30554          
1 58009U 23153K   26162.53583558 -.00000870  00000+0 -22053-4 0  9997
2 58009  43.0102  32.4000 0002607 285.9355 157.5720 15.27572124149259
STARLINK-30555          
1 58010U 23153K   26162.53583558 -.00000870  00000+0 -22053-4 0  9999
2 58010  43.0102  36.0000 0002607 285.9355 295.0800 15.27572124149258
STARLINK-30556          
1 58011U 23153K   26162.53583558 -.00000870  00000+0 -22053-4 0  9990
2 58011  43.0102  39.6000 0002607 285.9355  72.5880 15.27572124149254
STARLINK-30557          
1 58012U 23153K   26162.53583558 -.00000870  00000+0 -22053-4 0  9991
2 58012  43.0102  43.2000 0002607 285.9355 210.0960 15.27572124149254
STARLINK-30558          
1 58013U 23153K   26162.53583558 -.00000870  00000+0 -22053-4 0  9992
2 58013  43.0102  46.8000 0002607 285.9355 347.6040 15.27572124149250
STARLINK-30559          
1 58014U 23153K   26162.53583558 -.00000870  00000+0 -22053-4 0  9993
2 58014  43.0102  50.4000 0002607 285.9355 125.1120 15.27572124149250
STARLINK-30560          
1 58015U 23153K   26162.53583558 -.00000870  00000+0 -22053-4 0  9994
2 58015  43.0102  54.0000 0002607 285.9355 262.6200 15.27572124149257
STARLINK-30561          
1 58016U 23153K   26162.53583558 -.00000870  00000+0 -22053-4 0  9995
2 58016  43.0102  57.6000 0002607 285.9355  40.1280 15.27572124149254
STARLINK-30562          
1 58017U 23153K   26162.53583558 -.00000870  00000+0 -22053-4 0  9996
2 58017  43.0102  61.2000 0002607 285.9355 177.6360 15.27572124149251
STARLINK-30563          
1 58018U 23153K   26162.53583558 -.00000870  00000+0 -22053-4 0  9997
2 58018  43.0102  64.8000 0002607 285.9355 315.1440 15.27572124149259
STARLINK-30564          
1 58019U 23153K   26162.53583558 -.00000870  00000+0 -22053-4 0  9998
2 58019  43.0102  68.4000 0002607 285.9355  92.6520 15.27572124149256
STARLINK-30565          
1 58020U 23153K   26162.53583558 -.00000870  00000+0 -22053-4 0  9990
2 58020  43.0102  72.0000 0002607 285.9355 230.1600 15.27572124149257
STARLINK-30566          
1 58021U 23153K   26162.53583558 -.00000870  00000+0 -22053-4 0  9991
2 58021  43.0102  75.6000 0002607 285.9355   7.6680 15.27572124149252
STARLINK-30567          
1 58022U 23153K   26162.53583558 -.00000870  00000+0 -22053-4 0  9992
2 58022  43.0102  79.2000 0002607 285.9355 145.1760 15.27572124149250
STARLINK-30568          
1 58023U 23153K   26162.53583558 -.00000870  00000+0 -22053-4 0  9993
2 58023  43.0102  82.8000 0002607 285.9355 282.6840 15.27572124149257
STARLINK-30569          
1 58024U 23153K   26162.53583558 -.00000870  00000+0 -22053-4 0  9994
2 58024  43.0102  86.4000 0002607 285.9355  60.1920 15.27572124149256
STARLINK-30570          
1 58025U 23153K   26162.53583558 -.00000870  00000+0 -22053-4 0  9995
2 58025  43.0102  90.0000 0002607 285.9355 197.7000 15.27572124149254
STARLINK-30571          
1 58026U 23153K   26162.53583558 -.00000870  00000+0 -22053-4 0  9996
2 58026  43.0102  93.6000 0002607 285.9355 335.2080 15.27572124149251
STARLINK-30572          
1 58027U 23153K   26162.53583558 -.00000870  00000+0 -22053-4 0  9997
2 58027  43.0102  97.2000 0002607 285.9355 112.7160 15.27572124149259
STARLINK-30573          
1 58028U 23153K   26162.53583558 -.00000870  00000+0 -22053-4 0  9998
2 58028  43.0102 100.8000 0002607 285.9355 250.2240 15.27572124149258
STARLINK-30574          
1 58029U 23153K   26162.53583558 -.00000870  00000+0 -22053-4 0  9999
2 58029  43.0102 104.4000 0002607 285.9355  27.7320 15.27572124149255
STARLINK-30575          
1 58030U 23153K   26162.53583558 -.00000870  00000+0 -22053-4 0  9991
2 58030  43.0102 108.0000 0002607 285.9355 165.2400 15.27572124149254
STARLINK-30576          
1 58031U 23153K   26162.53583558 -.00000870  00000+0 -22053-4 0  9992
2 58031  43.0102 111.6000 0002607 285.9355 302.7480 15.27572124149251
STARLINK-30577          
1 58032U 23153K   26162.53583558 -.00000870  00000+0 -22053-4 0  9993
2 58032  43.0102 115.2000 0002607 285.9355  80.2560 15.27572124149259
STARLINK-30578          
1 58033U 23153K   26162.53583558 -.00000870  00000+0 -22053-4 0  9994
2 58033  43.0102 118.8000 0002607 285.9355 217.7640 15.27572124149255
STARLINK-30579          
1 58034U 23153K   26162.53583558 -.00000870  00000+0 -22053-4 0  9995
2 58034  43.0102 122.4000 0002607 285.9355 355.2720 15.27572124149254
STARLINK-30580          
1 58035U 23153K   26162.53583558 -.00000870  00000+0 -22053-4 0  9996
2 58035  43.0102 126.0000 0002607 285.9355 132.7800 15.27572124149252
STARLINK-30581          
1 58036U 23153K   26162.53583558 -.00000870  00000+0 -22053-4 0  9997
2 58036  43.0102 129.6000 0002607 285.9355 270.2880 15.27572124149258
STARLINK-30582          
1 58037U 23153K   26162.53583558 -.00000870  00000+0 -22053-4 0  9998
2 58037  43.0102 133.2000 0002607 285.9355  47.7960 15.27572124149256
STARLINK-30583          
1 58038U 23153K   26162.53583558 -.00000870  00000+0 -22053-4 0  9999
2 58038  43.0102 136.8000 0002607 285.9355 185.3040 15.27572124149254
STARLINK-30584          
1 58039U 23153K   26162.53583558 -.00000870  00000+0 -22053-4 0  9990
2 58039  43.0102 140.4000 0002607 285.9355 322.8120 15.27572124149253
STARLINK-30585          
1 58040U 23153K   26162.53583558 -.00000870  00000+0 -22053-4 0  9992
2 58040  43.0102 144.0000 0002607 285.9355 100.3200 15.27572124149253
STARLINK-30586          
1 58041U 23153K   26162.53583558 -.00000870  00000+0 -22053-4 0  9993
2 58041  43.0102 147.6000 0002607 285.9355 237.8280 15.27572124149257
STARLINK-30587          
1 58042U 23153K   26162.53583558 -.00000870  00000+0 -22053-4 0  9994
2 58042  43.0102 151.2000 0002607 285.9355  15.3360 15.27572124149257
STARLINK-30588          
1 58043U 23153K   26162.53583558 -.00000870  00000+0 -22053-4 0  9995
2 58043  43.0102 154.8000 0002607 285.9355 152.8440 15.27572124149253
STARLINK-30589          
1 58044U 23153K   26162.53583558 -.00000870  00000+0 -22053-4 0  9996
2 58044  43.0102 158.4000 0002607 285.9355 290.3520 15.27572124149251
STARLINK-30590          
1 58045U 23153K   26162.53583558 -.00000870  00000+0 -22053-4 0  9997
2 58045  43.0102 162.0000 0002607 285.9355  67.8600 15.27572124149259
STARLINK-30591          
1 58046U 23153K   26162.53583558 -.00000870  00000+0 -22053-4 0  9998
2 58046  43.0102 165.6000 0002607 285.9355 205.3680 15.27572124149256
STARLINK-30592          
1 58047U 23153K   26162.53583558 -.00000870  00000+0 -22053-4 0  9999
2 58047  43.0102 169.2000 0002607 285.9355 342.8760 15.27572124149253
STARLINK-30593          
1 58048U 23153K   26162.53583558 -.00000870  00000+0 -22053-4 0  9990
2 58048  43.0102 172.8000 0002607 285.9355 120.3840 15.27572124149252
STARLINK-30594          
1 58049U 23153K   26162.53583558 -.00000870  00000+0 -22053-4 0  9991
2 58049  43.0102 176.4000 0002607 285.9355 257.8920 15.27572124149258
STARLINK-30595          
1 58050U 23153K   26162.53583558 -.00000870  00000+0 -22053-4 0  9993
2 58050  43.0102 180.0000 0002607 285.9355  35.4000 15.27572124149250
STARLINK-30596          
1 58051U 23153K   26162.53583558 -.00000870  00000+0 -22053-4 0  9994
2 58051  43.0102 183.6000 0002607 285.9355 172.9080 15.27572124149255
STARLINK-30597          
1 58052U 23153K   26162.53583558 -.00000870  00000+0 -22053-4 0  9995
2 58052  43.0102 187.2000 0002607 285.9355 310.4160 15.27572124149254
STARLINK-30598          
1 58053U 23153K   26162.53583558 -.00000870  00000+0 -22053-4 0  9996
2 58053  43.0102 190.8000 0002607 285.9355  87.9240 15.27572124149250
STARLINK-30599          
1 58054U 23153K   26162.53583558 -.00000870  00000+0 -22053-4 0  9997
2 58054  43.0102 194.4000 0002607 285.9355 225.4320 15.27572124149259
STARLINK-30600          
1 58055U 23153K   26162.53583558 -.00000870  00000+0 -22053-4 0  9998
2 58055  43.0102 198.0000 0002607 285.9355   2.9400 15.27572124149257
STARLINK-30601          
1 58056U 23153K   26162.53583558 -.00000870  00000+0 -22053-4 0  9999
2 58056  43.0102 201.6000 0002607 285.9355 140.4480 15.27572124149255
STARLINK-30602          
1 58057U 23153K   26162.53583558 -.00000870  00000+0 -22053-4 0  9990
2 58057  43.0102 205.2000 0002607 285.9355 277.9560 15.27572124149251
STARLINK-30603          
1 58058U 23153K   26162.53583558 -.00000870  00000+0 -22053-4 0  9991
2 58058  43.0102 208.8000 0002607 285.9355  55.4640 15.27572124149259
STARLINK-30604          
1 58059U 23153K   26162.53583558 -.00000870  00000+0 -22053-4 0  9992
2 58059  43.0102 212.4000 0002607 285.9355 192.9720 15.27572124149257
STARLINK-30605          
1 58060U 23153K   26162.53583558 -.00000870  00000+0 -22053-4 0  9994
2 58060  43.0102 216.0000 0002607 285.9355 330.4800 15.27572124149257
STARLINK-30606          
1 58061U 23153K   26162.53583558 -.00000870  00000+0 -22053-4 0  9995
2 58061  43.0102 219.6000 0002607 285.9355 107.9880 15.27572124149252
STARLINK-30607          
1 58062U 23153K   26162.53583558 -.00000870  00000+0 -22053-4 0  9996
2 58062  43.0102 223.2000 0002607 285.9355 245.4960 15.27572124149251
STARLINK-30608          
1 58063U 23153K   26162.53583558 -.00000870  00000+0 -22053-4 0  9997
2 58063  43.0102 226.8000 0002607 285.9355  23.0040 15.27572124149250
STARLINK-30609          
1 58064U 23153K   26162.53583558 -.00000870  00000+0 -22053-4 0  9998
2 58064  43.0102 230.4000 0002607 285.9355 160.5120 15.27572124149258
STARLINK-30610          
1 58065U 23153K   26162.53583558 -.00000870  00000+0 -22053-4 0  9999
2 58065  43.0102 234.0000 0002607 285.9355 298.0200 15.27572124149255
STARLINK-30611          
1 58066U 23153K   26162.53583558 -.00000870  00000+0 -22053-4 0  9990
2 58066  43.0102 237.6000 0002607 285.9355  75.5280 15.27572124149251
STARLINK-30612          
1 58067U 23153K   26162.53583558 -.00000870  00000+0 -22053-4 0  9991
2 58067  43.0102 241.2000 0002607 285.9355 213.0360 15.27572124149251
STARLINK-30613          
1 58068U 23153K   26162.53583558 -.00000870  00000+0 -22053-4 0  9992
2 58068  43.0102 244.8000 0002607 285.9355 350.5440 15.27572124149257
STARLINK-30614          
1 58069U 23153K   26162.53583558 -.00000870  00000+0 -22053-4 0  9993
2 58069  43.0102 248.4000 0002607 285.9355 128.0520 15.27572124149255
STARLINK-30615          
1 58070U 23153K   26162.53583558 -.00000870  00000+0 -22053-4 0  9995
2 58070  43.0102 252.0000 0002607 285.9355 265.5600 15.27572124149254
STARLINK-30616          
1 58071U 23153K   26162.53583558 -.00000870  00000+0 -22053-4 0  9996
2 58071  43.0102 255.6000 0002607 285.9355  43.0680 15.27572124149251
STARLINK-30617          
1 58072U 23153K   26162.53583558 -.00000870  00000+0 -22053-4 0  9997
2 58072  43.0102 259.2000 0002607 285.9355 180.5760 15.27572124149258
STARLINK-30618          
1 58073U 23153K   26162.53583558 -.00000870  00000+0 -22053-4 0  9998
2 58073  43.0102 262.8000 0002607 285.9355 318.0840 15.27572124149256
STARLINK-30619          
1 58074U 23153K   26162.53583558 -.00000870  00000+0 -22053-4 0  9999
2 58074  43.0102 266.4000 0002607 285.9355  95.5920 15.27572124149253
STARLINK-30620          
1 58075U 23153K   26162.53583558 -.00000870  00000+0 -22053-4 0  9990
2 58075  43.0102 270.0000 0002607 285.9355 233.1000 15.27572124149254
STARLINK-30621          
1 58076U 23153K   26162.53583558 -.00000870  00000+0 -22053-4 0  9991
2 58076  43.0102 273.6000 0002607 285.9355  10.6080 15.27572124149250
STARLINK-30622          
1 58077U 23153K   26162.53583558 -.00000870  00000+0 -22053-4 0  9992
2 58077  43.0102 277.2000 0002607 285.9355 148.1160 15.27572124149257
STARLINK-30623          
1 58078U 23153K   26162.53583558 -.00000870  00000+0 -22053-4 0  9993
2 58078  43.0102 280.8000 0002607 285.9355 285.6240 15.27572124149254
STARLINK-30624          
1 58079U 23153K   26162.53583558 -.00000870  00000+0 -22053-4 0  9994
2 58079  43.0102 284.4000 0002607 285.9355  63.1320 15.27572124149253
STARLINK-30625          
1 58080U 23153K   26162.53583558 -.00000870  00000+0 -22053-4 0  9996
2 58080  43.0102 288.0000 0002607 285.9355 200.6400 15.27572124149252
STARLINK-30626          
1 58081U 23153K   26162.53583558 -.00000870  00000+0 -22053-4 0  9997
2 58081  43.0102 291.6000 0002607 285.9355 338.1480 15.27572124149258
STARLINK-30627          
1 58082U 23153K   26162.53583558 -.00000870  00000+0 -22053-4 0  9998
2 58082  43.0102 295.2000 0002607 285.9355 115.6560 15.27572124149256
STARLINK-30628          
1 58083U 23153K   26162.53583558 -.00000870  00000+0 -22053-4 0  9999
2 58083  43.0102 298.8000 0002607 285.9355 253.1640 15.27572124149253
STARLINK-30629          
1 58084U 23153K   26162.53583558 -.00000870  00000+0 -22053-4 0  9990
2 58084  43.0102 302.4000 0002607 285.9355  30.6720 15.27572124149253
STARLINK-30630          
1 58085U 23153K   26162.53583558 -.00000870  00000+0 -22053-4 0  9991
2 58085  43.0102 306.0000 0002607 285.9355 168.1800 15.27572124149250
STARLINK-30631          
1 58086U 23153K   26162.53583558 -.00000870  00000+0 -22053-4 0  9992
2 58086  43.0102 309.6000 0002607 285.9355 305.6880 15.27572124149256
STARLINK-30632          
1 58087U 23153K   26162.53583558 -.00000870  00000+0 -22053-4 0  9993
2 58087  43.0102 313.2000 0002607 285.9355  83.1960 15.27572124149255
STARLINK-30633          
1 58088U 23153K   26162.53583558 -.00000870  00000+0 -22053-4 0  9994
2 58088  43.0102 316.8000 0002607 285.9355 220.7040 15.27572124149253
STARLINK-30634          
1 58089U 23153K   26162.53583558 -.00000870  00000+0 -22053-4 0  9995
2 58089  43.0102 320.4000 0002607 285.9355 358.2120 15.27572124149251
STARLINK-30635          
1 58090U 23153K   26162.53583558 -.00000870  00000+0 -22053-4 0  9997
2 58090  43.0102 324.0000 0002607 285.9355 135.7200 15.27572124149250
STARLINK-30636          
1 58091U 23153K   26162.53583558 -.00000870  00000+0 -22053-4 0  9998
2 58091  43.0102 327.6000 0002607 285.9355 273.2280 15.27572124149256
STARLINK-30637          
1 58092U 23153K   26162.53583558 -.00000870  00000+0 -22053-4 0  9999
2 58092  43.0102 331.2000 0002607 285.9355  50.7360 15.27572124149255
STARLINK-30638          
1 58093U 23153K   26162.53583558 -.00000870  00000+0 -22053-4 0  9990
2 58093  43.0102 334.8000 0002607 285.9355 188.2440 15.27572124149251
STARLINK-30639          
1 58094U 23153K   26162.53583558 -.00000870  00000+0 -22053-4 0  9991
2 58094  43.0102 338.4000 0002607 285.9355 325.7520 15.27572124149259
STARLINK-30640          
1 58095U 23153K   26162.53583558 -.00000870  00000+0 -22053-4 0  9992
2 58095  43.0102 342.0000 0002607 285.9355 103.2600 15.27572124149259
STARLINK-30641          
1 58096U 23153K   26162.53583558 -.00000870  00000+0 -22053-4 0  9993
2 58096  43.0102 345.6000 0002607 285.9355 240.7680 15.27572124149254
STARLINK-30642          
1 58097U 23153K   26162.53583558 -.00000870  00000+0 -22053-4 0  9994
2 58097  43.0102 349.2000 0002607 285.9355  18.2760 15.27572124149252
STARLINK-30643          
1 58098U 23153K   26162.53583558 -.00000870  00000+0 -22053-4 0  9995
2 58098  43.0102 352.8000 0002607 285.9355 155.7840 15.27572124149259
STARLINK-30644          
1 58099U 23153K   26162.53583558 -.00000870  00000+0 -22053-4 0  9996
2 58099  43.0102 356.4000 0002607 285.9355 293.2920 15.27572124149257
